{"type": "FeatureCollection", "features": [ {"type": "Feature", "properties": {"norad_id": 17070, "name": "POLAR BEAR", "group": "nnss", "lat": 9.090929221577186, "lon": -176.67242060285352, "alt_km": 973.784520020994, "timestamp": "2025-12-25T09:48:52.559024+00:00", "meta": {"OBJECT_NAME": "POLAR BEAR", "OBJECT_ID": "1986-088A", "EPOCH": "2025-12-24T22:07:10.327584", "MEAN_MOTION": 13.75253229, "ECCENTRICITY": 0.00412851, "INCLINATION": 89.617, "RA_OF_ASC_NODE": 183.2859, "ARG_OF_PERICENTER": 84.2247, "MEAN_ANOMALY": 34.3522, "EPHEMERIS_TYPE": 0, "CLASSIFICATION_TYPE": "U", "NORAD_CAT_ID": 17070, "ELEMENT_SET_NO": 999, "REV_AT_EPOCH": 96146, "BSTAR": 9.5098307e-05, "MEAN_MOTION_DOT": 1.03e-06, "MEAN_MOTION_DDOT": 0}, "tle": {"line1": "1 17070U 86088A   25358.92164731  .00000103  00000+0  95098-4 0  9999", "line2": "2 17070  89.6170 183.2859 0041285  84.2247  34.3522 13.75253229961465"}}, "geometry": {"type": "Point", "coordinates": [-176.67242060285352, 9.090929221577186]}}, {"type": "Feature", "properties": {"norad_id": 18361, "name": "OSCAR 27", "group": "nnss", "lat": -34.24019158250714, "lon": 80.00036712668397, "alt_km": 1155.077161698925, "timestamp": "2025-12-25T09:48:52.559035+00:00", "meta": {"OBJECT_NAME": "OSCAR 27", "OBJECT_ID": "1987-080A", "EPOCH": "2025-12-24T17:55:02.715744", "MEAN_MOTION": 13.44909135, "ECCENTRICITY": 0.01039285, "INCLINATION": 90.3736, "RA_OF_ASC_NODE": 79.7212, "ARG_OF_PERICENTER": 189.2422, "MEAN_ANOMALY": 170.6816, "EPHEMERIS_TYPE": 0, "CLASSIFICATION_TYPE": "U", "NORAD_CAT_ID": 18361, "ELEMENT_SET_NO": 999, "REV_AT_EPOCH": 87718, "BSTAR": 0.00017485436, "MEAN_MOTION_DOT": 1.14e-06, "MEAN_MOTION_DDOT": 0}, "tle": {"line1": "1 18361U 87080A   25358.74655921  .00000114  00000+0  17485-3 0  9997", "line2": "2 18361  90.3736  79.7212 0103928 189.2422 170.6816 13.44909135877187"}}, "geometry": {"type": "Point", "coordinates": [80.00036712668397, -34.24019158250714]}}, {"type": "Feature", "properties": {"norad_id": 18362, "name": "OSCAR 29", "group": "nnss", "lat": -42.557828346870615, "lon": 80.5503861499783, "alt_km": 1121.5597164297433, "timestamp": "2025-12-25T09:48:52.559045+00:00", "meta": {"OBJECT_NAME": "OSCAR 29", "OBJECT_ID": "1987-080B", "EPOCH": "2025-12-24T18:31:37.262784", "MEAN_MOTION": 13.44450686, "ECCENTRICITY": 0.01047338, "INCLINATION": 90.3749, "RA_OF_ASC_NODE": 80.1821, "ARG_OF_PERICENTER": 212.3351, "MEAN_ANOMALY": 262.8592, "EPHEMERIS_TYPE": 0, "CLASSIFICATION_TYPE": "U", "NORAD_CAT_ID": 18362, "ELEMENT_SET_NO": 999, "REV_AT_EPOCH": 87671, "BSTAR": 0.00016990363, "MEAN_MOTION_DOT": 1.1e-06, "MEAN_MOTION_DDOT": 0}, "tle": {"line1": "1 18362U 87080B   25358.77195906  .00000110  00000+0  16990-3 0  9999", "line2": "2 18362  90.3749  80.1821 0104733 212.3351 262.8592 13.44450686876713"}}, "geometry": {"type": "Point", "coordinates": [80.5503861499783, -42.557828346870615]}}, {"type": "Feature", "properties": {"norad_id": 19070, "name": "OSCAR 23", "group": "nnss", "lat": 50.60576887393722, "lon": 16.394543316799144, "alt_km": 1158.0653413870396, "timestamp": "2025-12-25T09:48:52.559055+00:00", "meta": {"OBJECT_NAME": "OSCAR 23", "OBJECT_ID": "1988-033A", "EPOCH": "2025-12-25T02:38:09.075264", "MEAN_MOTION": 13.27789056, "ECCENTRICITY": 0.0190489, "INCLINATION": 90.3203, "RA_OF_ASC_NODE": 16.7755, "ARG_OF_PERICENTER": 145.6115, "MEAN_ANOMALY": 278.2947, "EPHEMERIS_TYPE": 0, "CLASSIFICATION_TYPE": "U", "NORAD_CAT_ID": 19070, "ELEMENT_SET_NO": 999, "REV_AT_EPOCH": 82417, "BSTAR": 0.00010293, "MEAN_MOTION_DOT": 6.1e-07, "MEAN_MOTION_DDOT": 0}, "tle": {"line1": "1 19070U 88033A   25359.10982726  .00000061  00000+0  10293-3 0  9992", "line2": "2 19070  90.3203  16.7755 0190489 145.6115 278.2947 13.27789056824170"}}, "geometry": {"type": "Point", "coordinates": [16.394543316799144, 50.60576887393722]}}, {"type": "Feature", "properties": {"norad_id": 19071, "name": "OSCAR 32", "group": "nnss", "lat": 7.73203184361943, "lon": -163.03898219144412, "alt_km": 1046.7279893887053, "timestamp": "2025-12-25T09:48:52.559065+00:00", "meta": {"OBJECT_NAME": "OSCAR 32", "OBJECT_ID": "1988-033B", "EPOCH": "2025-12-25T01:46:19.026048", "MEAN_MOTION": 13.27955759, "ECCENTRICITY": 0.0189236, "INCLINATION": 90.3208, "RA_OF_ASC_NODE": 16.907, "ARG_OF_PERICENTER": 132.6407, "MEAN_ANOMALY": 237.0138, "EPHEMERIS_TYPE": 0, "CLASSIFICATION_TYPE": "U", "NORAD_CAT_ID": 19071, "ELEMENT_SET_NO": 999, "REV_AT_EPOCH": 82429, "BSTAR": 9.9554e-05, "MEAN_MOTION_DOT": 5.9e-07, "MEAN_MOTION_DDOT": 0}, "tle": {"line1": "1 19071U 88033B   25359.07383132  .00000059  00000+0  99554-4 0  9990", "line2": "2 19071  90.3208  16.9070 0189236 132.6407 237.0138 13.27955759824299"}}, "geometry": {"type": "Point", "coordinates": [-163.03898219144412, 7.73203184361943]}}, {"type": "Feature", "properties": {"norad_id": 19223, "name": "NOVA 2", "group": "nnss", "lat": 40.35536867017547, "lon": -101.75515020547022, "alt_km": 1191.0111481654094, "timestamp": "2025-12-25T09:48:52.559075+00:00", "meta": {"OBJECT_NAME": "NOVA 2", "OBJECT_ID": "1988-052A", "EPOCH": "2025-12-24T19:11:53.971008", "MEAN_MOTION": 13.22937139, "ECCENTRICITY": 0.00295439, "INCLINATION": 89.9863, "RA_OF_ASC_NODE": 78.2573, "ARG_OF_PERICENTER": 343.513, "MEAN_ANOMALY": 137.1394, "EPHEMERIS_TYPE": 0, "CLASSIFICATION_TYPE": "U", "NORAD_CAT_ID": 19223, "ELEMENT_SET_NO": 999, "REV_AT_EPOCH": 81107, "BSTAR": 0.00014443023, "MEAN_MOTION_DOT": 6.9e-07, "MEAN_MOTION_DDOT": 0}, "tle": {"line1": "1 19223U 88052A   25358.79993022  .00000069  00000+0  14443-3 0  9997", "line2": "2 19223  89.9863  78.2573 0029543 343.5130 137.1394 13.22937139811071"}}, "geometry": {"type": "Point", "coordinates": [-101.75515020547022, 40.35536867017547]}}, {"type": "Feature", "properties": {"norad_id": 19419, "name": "OSCAR 25", "group": "nnss", "lat": 32.20002844513313, "lon": 20.264027035832598, "alt_km": 1168.7049753984347, "timestamp": "2025-12-25T09:48:52.559085+00:00", "meta": {"OBJECT_NAME": "OSCAR 25", "OBJECT_ID": "1988-074A", "EPOCH": "2025-12-24T13:00:49.693248", "MEAN_MOTION": 13.42625466, "ECCENTRICITY": 0.00951606, "INCLINATION": 90.0336, "RA_OF_ASC_NODE": 20.2823, "ARG_OF_PERICENTER": 211.7174, "MEAN_ANOMALY": 313.9543, "EPHEMERIS_TYPE": 0, "CLASSIFICATION_TYPE": "U", "NORAD_CAT_ID": 19419, "ELEMENT_SET_NO": 999, "REV_AT_EPOCH": 82798, "BSTAR": 0.00013246409, "MEAN_MOTION_DOT": 8.6e-07, "MEAN_MOTION_DDOT": 0}, "tle": {"line1": "1 19419U 88074A   25358.54224182  .00000086  00000+0  13246-3 0  9994", "line2": "2 19419  90.0336  20.2823 0095160 211.7174 313.9543 13.42625466827989"}}, "geometry": {"type": "Point", "coordinates": [20.264027035832598, 32.20002844513313]}}, {"type": "Feature", "properties": {"norad_id": 19420, "name": "OSCAR 31", "group": "nnss", "lat": -84.64213494953036, "lon": 21.01489121035655, "alt_km": 1084.908859643605, "timestamp": "2025-12-25T09:48:52.559096+00:00", "meta": {"OBJECT_NAME": "OSCAR 31", "OBJECT_ID": "1988-074B", "EPOCH": "2025-12-24T20:48:18.577152", "MEAN_MOTION": 13.42586519, "ECCENTRICITY": 0.00935792, "INCLINATION": 90.0354, "RA_OF_ASC_NODE": 20.6353, "ARG_OF_PERICENTER": 204.9262, "MEAN_ANOMALY": 331.0281, "EPHEMERIS_TYPE": 0, "CLASSIFICATION_TYPE": "U", "NORAD_CAT_ID": 19420, "ELEMENT_SET_NO": 999, "REV_AT_EPOCH": 82813, "BSTAR": 0.00010318326, "MEAN_MOTION_DOT": 6.9e-07, "MEAN_MOTION_DDOT": 0}, "tle": {"line1": "1 19420U 88074B   25358.86688168  .00000069  00000+0  10318-3 0  9997", "line2": "2 19420  90.0354  20.6353 0093579 204.9262 331.0281 13.42586519828130"}}, "geometry": {"type": "Point", "coordinates": [21.01489121035655, -84.64213494953036]}}]}